STARLINK-36222          
1 67097U 25298Y   25358.83334491 -.01716995  00000+0 -96045-2 0  9998
2 67097  69.9961 215.5485 0003823 273.2359 213.4940 15.82223095  2864
STARLINK-36205          
1 67098U 25298Z   25358.83334491 -.01714431  00000+0 -95950-2 0  9996
2 67098  69.9961 215.5460 0003669 275.7547 213.1487 15.82210092  2925
STARLINK-36193          
1 67099U 25298AA  25358.83334491 -.02398077  00000+0 -14105-1 0  9994
2 67099  69.9960 215.5436 0003596 269.9142 221.1062 15.81188446  2860
STARLINK-36215          
1 67100U 25298AB  25358.83334491 -.01719799  00000+0 -96223-2 0  9996
2 67100  69.9960 215.5394 0003721 275.9962 218.3531 15.82225933  2923
STARLINK-36200          
1 67101U 25298AC  25358.83334491 -.01719064  00000+0 -96194-2 0  9999
2 67101  69.9964 215.5443 0003804 270.9677 219.6897 15.82220180  2921
STARLINK-36255          
1 67102U 25299A   25358.83334491 -.01796758  00000+0 -84306-2 0  9998
2 67102  42.9969 242.5660 0001724 264.8371  88.6901 15.85424814  2755
STARLINK-36256          
1 67103U 25299B   25358.83334491 -.01788004  00000+0 -83778-2 0  9996
2 67103  42.9969 242.5628 0001697 267.4807  87.3322 15.85436670  2758
STARLINK-36258          
1 67104U 25299C   25358.83334491 -.01790902  00000+0 -83866-2 0  9995
2 67104  42.9969 242.5591 0001754 269.8204  86.4496 15.85452980  2753
STARLINK-36261          
1 67105U 25299D   25358.83334491 -.01793607  00000+0 -83914-2 0  9995
2 67105  42.9968 242.5561 0001711 268.2181  89.2580 15.85477888  2759
STARLINK-36259          
1 67106U 25299E   25358.83334491 -.01794870  00000+0 -83899-2 0  9991
2 67106  42.9970 242.5481 0001731 261.7789  98.9494 15.85498079  2754
STARLINK-36196          
1 67107U 25299F   25358.83334491 -.01794272  00000+0 -83907-2 0  9998
2 67107  42.9970 242.5524 0001692 267.2961  91.7231 15.85488717  2750
STARLINK-36208          
1 67108U 25299G   25358.83334491 -.01783446  00000+0 -83290-2 0  9995
2 67108  42.9970 242.5436 0001638 262.1164 100.3187 15.85495462  2754
